ORBCOMM FM37            
1 33064U 08031E   25365.52957428  .00004084  00000+0  55246-3 0  9991
2 33064  48.4376 124.8721 0004902 153.3992 260.0869 14.80690616943280
ORBCOMM FM40            
1 33065U 08031F   25365.61192000  .00005374  00000+0  67634-3 0  9996
2 33065  48.4402 105.0396 0006037 170.0653 320.9784 14.83222102943456
VESSELSAT 1             
1 37840U 11058C   25365.06933646  .00000439  00000+0  94698-4 0  9990
2 37840  19.9636 342.5104 0013642 191.6802 168.3287 14.11402866734158
ORBCOMM FM109           
1 40086U 14040A   25365.49667509  .00001609  00000+0  37878-3 0  9995
2 40086  47.0017 164.1753 0001861 186.2593 173.8269 14.58581477609861
ORBCOMM FM107           
1 40087U 14040B   25365.58347689  .00001480  00000+0  35063-3 0  9991
2 40087  47.0035 164.6461 0000682 137.4169 222.6770 14.58656849609956
ORBCOMM FM106           
1 40088U 14040C   25365.30710242  .00002449  00000+0  43364-3 0  9990
2 40088  47.0617 332.1266 0017265 264.4548  95.4374 14.70090369612475
ORBCOMM FM111           
1 40089U 14040D   25365.42351299  .00005851  00000+0  65144-3 0  9997
2 40089  46.9983 154.5117 0027718  57.5592 302.7981 14.87847587619582
ORBCOMM FM104           
1 40090U 14040E   25365.58426013  .00001138  00000+0  28762-3 0  9992
2 40090  47.0031 200.6427 0015934  26.1220 334.0466 14.57040961609408
